{
  "norad_id": 62573,
  "name": "STARLINK-32771",
  "history": [
    {
      "epoch": "2026-03-28T15:20:11.023872Z",
      "apogee_km": 483.64670006236156,
      "perigee_km": 482.170203081183,
      "latitude_deg": 4.561214119980765e-05,
      "longitude_deg": 129.20083663390687,
      "height_km": 482.69559581196114,
      "semi_major_axis_km": 6861.045451571772,
      "eccentricity": 0.0001076,
      "inclination_deg": 43.0005,
      "raan_deg": 185.3033,
      "arg_perigee_deg": 269.1716,
      "mean_anomaly_deg": 90.9013,
      "mean_motion_rev_day": 15.27626971
    },
    {
      "epoch": "2026-03-28T23:10:57.827712Z",
      "apogee_km": 483.1625096630996,
      "perigee_km": 482.7604492922019,
      "latitude_deg": 3.1710264078835134e-05,
      "longitude_deg": 9.33646817640749,
      "height_km": 482.7031132198616,
      "semi_major_axis_km": 6861.0984794776505,
      "eccentricity": 2.93e-05,
      "inclination_deg": 43.0015,
      "raan_deg": 183.4562,
      "arg_perigee_deg": 279.8032,
      "mean_anomaly_deg": 80.2787,
      "mean_motion_rev_day": 15.27609261
    },
    {
      "epoch": "2026-03-29T22:43:16.843008Z",
      "apogee_km": 484.7214343593132,
      "perigee_km": 481.0426931577058,
      "latitude_deg": 1.2995364284740707e-05,
      "longitude_deg": 9.752621705487446,
      "height_km": 482.4806137196975,
      "semi_major_axis_km": 6861.019063758509,
      "eccentricity": 0.00026809,
      "inclination_deg": 42.9986,
      "raan_deg": 177.9183,
      "arg_perigee_deg": 275.5832,
      "mean_anomaly_deg": 84.4714,
      "mean_motion_rev_day": 15.27635784
    },
    {
      "epoch": "2026-03-30T12:50:42.513792Z",
      "apogee_km": 484.2245710018642,
      "perigee_km": 481.9337481505054,
      "latitude_deg": -4.140271869520051e-06,
      "longitude_deg": 153.99139872628987,
      "height_km": 482.75177614482516,
      "semi_major_axis_km": 6861.2161595761845,
      "eccentricity": 0.00016694,
      "inclination_deg": 42.9996,
      "raan_deg": 174.5941,
      "arg_perigee_deg": 275.223,
      "mean_anomaly_deg": 84.8431,
      "mean_motion_rev_day": 15.2756996
    },
    {
      "epoch": "2026-03-31T12:23:02.778432Z",
      "apogee_km": 483.76545208334755,
      "perigee_km": 482.1316903871257,
      "latitude_deg": -2.0147260455169495e-05,
      "longitude_deg": 154.4025360821943,
      "height_km": 482.69006457332875,
      "semi_major_axis_km": 6861.085571235236,
      "eccentricity": 0.00011906,
      "inclination_deg": 43.0,
      "raan_deg": 169.0564,
      "arg_perigee_deg": 272.4581,
      "mean_anomaly_deg": 87.6134,
      "mean_motion_rev_day": 15.27613572
    },
    {
      "epoch": "2026-04-01T15:03:42.708960Z",
      "apogee_km": 484.0477571709671,
      "perigee_km": 482.04154765580097,
      "latitude_deg": -3.8841251986704767e-05,
      "longitude_deg": 106.8622237886402,
      "height_km": 483.1855649306167,
      "semi_major_axis_km": 6861.181652413384,
      "eccentricity": 0.0001462,
      "inclination_deg": 42.9993,
      "raan_deg": 162.7781,
      "arg_perigee_deg": 248.7007,
      "mean_anomaly_deg": 111.3688,
      "mean_motion_rev_day": 15.27581484
    },
    {
      "epoch": "2026-04-02T20:52:40.725984Z",
      "apogee_km": 483.51352785243125,
      "perigee_km": 482.36635578775986,
      "latitude_deg": 7.045235416688478e-06,
      "longitude_deg": 11.378231823655685,
      "height_km": 482.7244383893174,
      "semi_major_axis_km": 6861.076941820095,
      "eccentricity": 8.36e-05,
      "inclination_deg": 43.0048,
      "raan_deg": 155.7603,
      "arg_perigee_deg": 269.2254,
      "mean_anomaly_deg": 90.8502,
      "mean_motion_rev_day": 15.27616454
    },
    {
      "epoch": "2026-04-03T12:34:13.933632Z",
      "apogee_km": 483.96073284749946,
      "perigee_km": 481.91915079269165,
      "latitude_deg": 4.846118248546141e-05,
      "longitude_deg": 131.65284039376004,
      "height_km": 482.5217102465147,
      "semi_major_axis_km": 6861.076941820095,
      "eccentricity": 0.00014878,
      "inclination_deg": 43.0037,
      "raan_deg": 152.0677,
      "arg_perigee_deg": 281.0365,
      "mean_anomaly_deg": 79.032,
      "mean_motion_rev_day": 15.27616454
    },
    {
      "epoch": "2026-04-04T12:06:35.898624Z",
      "apogee_km": 484.5563436304774,
      "perigee_km": 481.5629407594206,
      "latitude_deg": 4.0299330566699334e-05,
      "longitude_deg": 132.0570801434471,
      "height_km": 482.9505317204392,
      "semi_major_axis_km": 6861.196642194948,
      "eccentricity": 0.00021814,
      "inclination_deg": 43.0032,
      "raan_deg": 146.5302,
      "arg_perigee_deg": 265.6605,
      "mean_anomaly_deg": 94.3998,
      "mean_motion_rev_day": 15.27576478
    },
    {
      "epoch": "2026-04-05T13:13:07.609728Z",
      "apogee_km": 484.05229772406256,
      "perigee_km": 482.1105729068686,
      "latitude_deg": -4.85581514295098e-07,
      "longitude_deg": 108.48512346670176,
      "height_km": 482.93743904943875,
      "semi_major_axis_km": 6861.218435315465,
      "eccentricity": 0.0001415,
      "inclination_deg": 43.0004,
      "raan_deg": 140.6216,
      "arg_perigee_deg": 265.3173,
      "mean_anomaly_deg": 94.7517,
      "mean_motion_rev_day": 15.275692
    },
    {
      "epoch": "2026-04-06T03:20:32.032896Z",
      "apogee_km": 483.9176700345133,
      "perigee_km": 482.1059150843503,
      "latitude_deg": 1.9444213126169984e-05,
      "longitude_deg": -107.2705491461782,
      "height_km": 482.9111669600637,
      "semi_major_axis_km": 6861.148792559431,
      "eccentricity": 0.00013203,
      "inclination_deg": 42.9994,
      "raan_deg": 137.2977,
      "arg_perigee_deg": 262.2067,
      "mean_anomaly_deg": 97.8635,
      "mean_motion_rev_day": 15.27592458
    },
    {
      "epoch": "2026-04-07T10:43:38.601984Z",
      "apogee_km": 483.9984026870861,
      "perigee_km": 481.9181186040587,
      "latitude_deg": -2.1102837437720273e-05,
      "longitude_deg": 133.2769903249505,
      "height_km": 482.6629050122201,
      "semi_major_axis_km": 6861.095260645572,
      "eccentricity": 0.0001516,
      "inclination_deg": 43.001,
      "raan_deg": 129.9116,
      "arg_perigee_deg": 273.9842,
      "mean_anomaly_deg": 86.0836,
      "mean_motion_rev_day": 15.27610336
    },
    {
      "epoch": "2026-04-08T10:16:00.512544Z",
      "apogee_km": 484.8017277687377,
      "perigee_km": 481.3938896639447,
      "latitude_deg": 2.454873875270745e-05,
      "longitude_deg": 133.68071245370407,
      "height_km": 482.28354510559586,
      "semi_major_axis_km": 6861.234808716341,
      "eccentricity": 0.00024834,
      "inclination_deg": 43.0011,
      "raan_deg": 124.3733,
      "arg_perigee_deg": 290.3262,
      "mean_anomaly_deg": 69.7323,
      "mean_motion_rev_day": 15.27563732
    },
    {
      "epoch": "2026-04-09T01:57:35.032608Z",
      "apogee_km": 483.9501663623232,
      "perigee_km": 482.1555535425532,
      "latitude_deg": -9.241851156251817e-06,
      "longitude_deg": -106.05164460087417,
      "height_km": 482.7636892591715,
      "semi_major_axis_km": 6861.1898599524375,
      "eccentricity": 0.00013078,
      "inclination_deg": 43.0007,
      "raan_deg": 120.6793,
      "arg_perigee_deg": 274.2105,
      "mean_anomaly_deg": 85.8597,
      "mean_motion_rev_day": 15.27578743
    },
    {
      "epoch": "2026-04-10T07:46:32.500128Z",
      "apogee_km": 483.61179245359017,
      "perigee_km": 482.3096933239449,
      "latitude_deg": -3.4922083368830016e-05,
      "longitude_deg": 158.46697846843827,
      "height_km": 482.5686172211108,
      "semi_major_axis_km": 6861.097742888767,
      "eccentricity": 9.489e-05,
      "inclination_deg": 42.9986,
      "raan_deg": 113.6619,
      "arg_perigee_deg": 284.9796,
      "mean_anomaly_deg": 75.095,
      "mean_motion_rev_day": 15.27609507
    },
    {
      "epoch": "2026-04-11T16:43:48.709056Z",
      "apogee_km": 483.67403654954705,
      "perigee_km": 482.29357904301924,
      "latitude_deg": 3.1908703423229267e-06,
      "longitude_deg": 15.042485891863215,
      "height_km": 482.58758315383244,
      "semi_major_axis_km": 6861.120807796283,
      "eccentricity": 0.0001006,
      "inclination_deg": 43.0001,
      "raan_deg": 105.9083,
      "arg_perigee_deg": 284.4807,
      "mean_anomaly_deg": 75.5933,
      "mean_motion_rev_day": 15.27601804
    },
    {
      "epoch": "2026-04-12T16:16:09.630336Z",
      "apogee_km": 483.7854760092923,
      "perigee_km": 482.30894916674333,
      "latitude_deg": 3.655613760397741e-05,
      "longitude_deg": 15.449730330582712,
      "height_km": 482.7839149753543,
      "semi_major_axis_km": 6861.1842125880175,
      "eccentricity": 0.0001076,
      "inclination_deg": 43.0001,
      "raan_deg": 100.3694,
      "arg_perigee_deg": 273.0853,
      "mean_anomaly_deg": 86.9876,
      "mean_motion_rev_day": 15.27580629
    },
    {
      "epoch": "2026-04-14T09:04:13.863936Z",
      "apogee_km": 483.9387218647653,
      "perigee_km": 482.1725136611012,
      "latitude_deg": -1.090469902035509e-05,
      "longitude_deg": 112.15529595508129,
      "height_km": 482.853988836311,
      "semi_major_axis_km": 6861.192617762933,
      "eccentricity": 0.00012871,
      "inclination_deg": 43.0004,
      "raan_deg": 90.7683,
      "arg_perigee_deg": 268.5906,
      "mean_anomaly_deg": 91.4798,
      "mean_motion_rev_day": 15.27577822
    },
    {
      "epoch": "2026-04-15T14:53:11.884416Z",
      "apogee_km": 483.7937136591745,
      "perigee_km": 482.22251142840196,
      "latitude_deg": 3.686335732006896e-05,
      "longitude_deg": 16.672792671459753,
      "height_km": 482.81037486941557,
      "semi_major_axis_km": 6861.145112543788,
      "eccentricity": 0.0001145,
      "inclination_deg": 42.9996,
      "raan_deg": 83.752,
      "arg_perigee_deg": 268.1158,
      "mean_anomaly_deg": 91.9563,
      "mean_motion_rev_day": 15.27593687
    }
  ]
}